{ "_id" : { "$oid" : "550f5792c6cdeefdf1507330" }, "user" : "116773878100782815934", "photoCount" : 1, "Recommend" : [ { "lon" : "-4.264584", "vicinity" : "Ellesmere Street, Glasgow", "placeCategory" : "park", "placeName" : "Possil Clay Pits Ellesmere Entrance", "lat" : "55.881546", "popularity" : "1" }, { "lon" : "-4.272038", "vicinity" : "Firhill Road, Glasgow", "placeCategory" : "beauty_salon", "placeName" : "Bon Vivant Boutique", "lat" : "55.883185", "popularity" : "1" }, { "lon" : "-4.275538", "vicinity" : "605 Maryhill Rd, Glasgow", "placeCategory" : "beauty_salon", "placeName" : "Scissor Sister Hair and Nail Boutique", "lat" : "55.880777", "popularity" : "1" }, { "lon" : "-4.274457", "vicinity" : "567 Maryhill Rd, Glasgow", "placeCategory" : "beauty_salon", "placeName" : "Beauty Spot By", "lat" : "55.880593", "popularity" : "1" }, { "lon" : "-4.275589", "vicinity" : "601 Maryhill Rd, Glasgow", "placeCategory" : "beauty_salon", "placeName" : "The Beauty Corner", "lat" : "55.88082", "popularity" : "1" }, { "lon" : "-4.272367", "vicinity" : "2 Murano Street, Glasgow", "placeCategory" : "cafe", "placeName" : "Shamila's cafe fresh hot and cold food", "lat" : "55.882796", "popularity" : "1" }, { "lon" : "-4.267717", "vicinity" : "687 Garscube Road, Glasgow", "placeCategory" : "bar", "placeName" : "Star & Garter", "lat" : "55.87803", "popularity" : "1" }, { "lon" : "-4.267592", "vicinity" : "671 Garscube Road, Glasgow", "placeCategory" : "beauty_salon", "placeName" : "Ciel Beauty Salon", "lat" : "55.878075", "popularity" : "1" } ] }
{ "_id" : { "$oid" : "550f5797c6cdeefdf1507332" }, "user" : "116773878100782815934", "photoCount" : 1, "Recommend" : [ { "lon" : "-4.264584", "vicinity" : "Ellesmere Street, Glasgow", "placeCategory" : "park", "placeName" : "Possil Clay Pits Ellesmere Entrance", "lat" : "55.881546", "popularity" : "1" }, { "lon" : "-4.272038", "vicinity" : "Firhill Road, Glasgow", "placeCategory" : "beauty_salon", "placeName" : "Bon Vivant Boutique", "lat" : "55.883185", "popularity" : "1" }, { "lon" : "-4.275538", "vicinity" : "605 Maryhill Rd, Glasgow", "placeCategory" : "beauty_salon", "placeName" : "Scissor Sister Hair and Nail Boutique", "lat" : "55.880777", "popularity" : "1" }, { "lon" : "-4.274457", "vicinity" : "567 Maryhill Rd, Glasgow", "placeCategory" : "beauty_salon", "placeName" : "Beauty Spot By", "lat" : "55.880593", "popularity" : "1" }, { "lon" : "-4.275589", "vicinity" : "601 Maryhill Rd, Glasgow", "placeCategory" : "beauty_salon", "placeName" : "The Beauty Corner", "lat" : "55.88082", "popularity" : "1" }, { "lon" : "-4.272367", "vicinity" : "2 Murano Street, Glasgow", "placeCategory" : "cafe", "placeName" : "Shamila's cafe fresh hot and cold food", "lat" : "55.882796", "popularity" : "1" }, { "lon" : "-4.267717", "vicinity" : "687 Garscube Road, Glasgow", "placeCategory" : "bar", "placeName" : "Star & Garter", "lat" : "55.87803", "popularity" : "1" }, { "lon" : "-4.267592", "vicinity" : "671 Garscube Road, Glasgow", "placeCategory" : "beauty_salon", "placeName" : "Ciel Beauty Salon", "lat" : "55.878075", "popularity" : "1" } ] }
{ "_id" : { "$oid" : "550f579bc6cdeefdf1507334" }, "user" : "10206694832836473", "photoCount" : 1, "Recommend" : [ { "lon" : "-4.290642", "vicinity" : "385 Byres Road, Glasgow", "placeCategory" : "bar", "placeName" : "Bo'Vine", "lat" : "55.877782", "popularity" : "1" }, { "lon" : "-4.295338", "vicinity" : "189 Byres Road, Glasgow", "placeCategory" : "cafe", "placeName" : "Tinderbox", "lat" : "55.873976", "popularity" : "1" }, { "lon" : "-4.294928", "vicinity" : "199 Byres Road, Glasgow", "placeCategory" : "restaurant", "placeName" : "La Vita Spuntini", "lat" : "55.874297", "popularity" : "1" }, { "lon" : "-4.29322", "vicinity" : "Ashton Lane, Glasgow", "placeCategory" : "movie_theater", "placeName" : "Grosvenor Cinema", "lat" : "55.874678", "popularity" : "1" }, { "lon" : "-4.292003", "vicinity" : "8 Cresswell Lane, Glasgow", "placeCategory" : "restaurant", "placeName" : "Zizzi", "lat" : "55.876044", "popularity" : "1" }, { "lon" : "-4.293067", "vicinity" : "Ashton Lane, Glasgow", "placeCategory" : "cafe", "placeName" : "Brel", "lat" : "55.874483", "popularity" : "1" }, { "lon" : "-4.290703", "vicinity" : "17 Vinicombe Street, Glasgow", "placeCategory" : "bar", "placeName" : "HillHead Bookclub", "lat" : "55.87696", "popularity" : "1" }, { "lon" : "-4.293317", "vicinity" : "12 Ashton Lane, Glasgow", "placeCategory" : "bar", "placeName" : "Ubiquitous Chip", "lat" : "55.874956", "popularity" : "1" } ] }
{ "_id" : { "$oid" : "550f57b1c6cdeefdf1507336" }, "user" : "10206825530063822", "photoCount" : 9, "Recommend" : [ { "lon" : "24.572414", "vicinity" : "Strada 22 Decembrie 35, TÃ¢rgu MureÈ™", "placeCategory" : "bakery", "placeName" : "La Casa Pane Dolce", "lat" : "46.556096", "popularity" : "1" }, { "lon" : "24.57458", "vicinity" : "Complexul Week-End Tg-Mures, Strada Plutelor 2, TÃ¢rgu MureÈ™", "placeCategory" : "restaurant", "placeName" : "Corner-Studio", "lat" : "46.561231", "popularity" : "1" }, { "lon" : "24.577658", "vicinity" : "Strada Gheorghe Marinescu, TÃ¢rgu MureÈ™", "placeCategory" : "cafe", "placeName" : "Zen caffe &Lounge", "lat" : "46.558508", "popularity" : "1" }, { "lon" : "24.57788", "vicinity" : "Universitatea Petru Maior - corp E, Strada Plutelor 2, TÃ¢rgu MureÈ™", "placeCategory" : "restaurant", "placeName" : "Restaurant PescÄƒruÈ™", "lat" : "46.561543", "popularity" : "1" }, { "lon" : "24.573029", "vicinity" : "Complexul Week-End Tg-Mures, Strada Plutelor 2, TÃ¢rgu MureÈ™", "placeCategory" : "restaurant", "placeName" : "Restaurant Solyom Complex Weekend", "lat" : "46.561088", "popularity" : "1" }, { "lon" : "24.57761", "vicinity" : "Strada 22 Decembrie 1989, TÃ¢rgu MureÈ™", "placeCategory" : "shopping_mall", "placeName" : "Wisdom Market Hall", "lat" : "46.559406", "popularity" : "1" }, { "lon" : "24.580242", "vicinity" : "Strada Gheorghe Marinescu 38, TÃ¢rgu MureÈ™", "placeCategory" : "library", "placeName" : "Biblioteca UMF nr.2", "lat" : "46.554175", "popularity" : "1" }, { "lon" : "24.575326", "vicinity" : "Strada 22 Decembrie 1989, TÃ¢rgu MureÈ™", "placeCategory" : "church", "placeName" : "Parohia ReformatÄƒ V.", "lat" : "46.557994", "popularity" : "1" } ] }
{ "_id" : { "$oid" : "550f57c6c6cdeefdf1507338" }, "user" : "109470255919197085790", "photoCount" : 20, "Recommend" : [ { "lon" : "78.119775", "vicinity" : "aparna Tower, 1st Floor ,Bye-pass Road, Madurai", "placeCategory" : "bar", "placeName" : "cocktail deziner studio", "lat" : "9.9252", "popularity" : "1" }, { "lon" : "78.11885", "vicinity" : "Corporation Complex, Naiker Street, Near Corporation Complex, Naicker New Street, Madurai", "placeCategory" : "beauty_salon", "placeName" : "Marshal Saloon", "lat" : "9.92436", "popularity" : "1" }, { "lon" : "78.117185", "vicinity" : "North Avani Moola Street, Madurai Main, Madurai", "placeCategory" : "cafe", "placeName" : "Sri Meenakshi Coffee Bar", "lat" : "9.92109", "popularity" : "1" }, { "lon" : "78.11599", "vicinity" : "No. 54, North Veli Street, Opposite Vijay hotel, North Veli Street, Madurai", "placeCategory" : "university", "placeName" : "Vinayaka Missions University", "lat" : "9.92428", "popularity" : "1" }, { "lon" : "78.119775", "vicinity" : "No. 81 & 81 - A, RS No. 78/3/ A, By Pass Road, Ponmeni Village, Madurai", "placeCategory" : "shopping_mall", "placeName" : "Mega Mart", "lat" : "9.9252", "popularity" : "1" }, { "lon" : "78.121521", "vicinity" : "128-A, North Marat Street, Yanaikkal, Opp. to Anjeneyar Temple, Simmakkal, Madurai", "placeCategory" : "beauty_salon", "placeName" : "FAIR & HAIR HEALTH & BEAUTY CURE FOR MEN & WOMEN", "lat" : "9.926072", "popularity" : "1" }, { "lon" : "78.12253", "vicinity" : "Amman Sannathi Street, Amman Sannathi Street, Opposite Shanmuga Traders, Amman Sannathi Street, Madurai", "placeCategory" : "cafe", "placeName" : "Sri Venkateshwara Coffee Bar", "lat" : "9.92076", "popularity" : "1" }, { "lon" : "78.118222", "vicinity" : "North Veli Street, Simmakkal, Madurai Main, Madurai", "placeCategory" : "restaurant", "placeName" : "konar Hotel", "lat" : "9.924719", "popularity" : "1" } ] }
{ "_id" : { "$oid" : "550f57d8c6cdeefdf150733a" }, "user" : "55094686bc2e8b25cc000003", "photoCount" : 20, "Recommend" : [ { "lon" : "24.147517", "vicinity" : "Strada Emil Cioran, Sibiu", "placeCategory" : "night_club", "placeName" : "Zen Garden Lounge", "lat" : "45.790104", "popularity" : "1" }, { "lon" : "24.148454", "vicinity" : "Strada Tribunei 6, Sibiu", "placeCategory" : "art_gallery", "placeName" : "The Contemporary Art Gallery", "lat" : "45.793637", "popularity" : "1" }, { "lon" : "24.153752", "vicinity" : "Strada CetÄƒÈ›ii, Sibiu", "placeCategory" : "cafe", "placeName" : "Pardon Cafe Sibiu", "lat" : "45.794658", "popularity" : "1" }, { "lon" : "24.146334", "vicinity" : "Strada Emil Cioran 4, Sibiu", "placeCategory" : "university", "placeName" : "Facultatea de Inginerie 'Hermann Oberth'", "lat" : "45.789829", "popularity" : "1" }, { "lon" : "24.149582", "vicinity" : "PiaÈ›a Unirii 10, Sibiu", "placeCategory" : "shopping_mall", "placeName" : "Magazinul Dumbrava", "lat" : "45.79052", "popularity" : "1" }, { "lon" : "24.147551", "vicinity" : "Strada Mitropoliei, Sibiu", "placeCategory" : "park", "placeName" : "Astra Park", "lat" : "45.793184", "popularity" : "1" }, { "lon" : "24.154102", "vicinity" : "Strada Filarmonicii 2, Sibiu", "placeCategory" : "restaurant", "placeName" : "Hermania Restaurant", "lat" : "45.796767", "popularity" : "1" }, { "lon" : "24.150301", "vicinity" : "Strada Nicolae BÄƒlcescu, 21, Sibiu", "placeCategory" : "restaurant", "placeName" : "Mara's Steak House", "lat" : "45.794185", "popularity" : "1" } ] }
{ "_id" : { "$oid" : "550f57edc6cdeefdf150733c" }, "user" : "55096755bc2e8b25cc00002b", "photoCount" : 20, "Recommend" : [ { "lon" : "-4.282552", "vicinity" : "499 Great Western Road, Glasgow", "placeCategory" : "bar", "placeName" : "Coopers", "lat" : "55.875529", "popularity" : "4" }, { "lon" : "-4.282748", "vicinity" : "516 Great Western Road, Kelvinbridge, Glasgow", "placeCategory" : "art_gallery", "placeName" : "Art Exposure", "lat" : "55.875887", "popularity" : "4" }, { "lon" : "-4.282302", "vicinity" : "500 Great Western Road, Glasgow", "placeCategory" : "night_club", "placeName" : "The Viper", "lat" : "55.875732", "popularity" : "4" }, { "lon" : "-4.276425", "vicinity" : "7a Lansdowne Crescent, Glasgow", "placeCategory" : "bar", "placeName" : "Lansdowne Bar & Kitchen", "lat" : "55.874337", "popularity" : "4" }, { "lon" : "-4.280816", "vicinity" : "447 Great Western Road, Glasgow", "placeCategory" : "restaurant", "placeName" : "La Parmigiana â€ŽRestaurant Glasgow", "lat" : "55.874889", "popularity" : "4" }, { "lon" : "-4.274602", "vicinity" : "573-575 Maryhill Rd, Glasgow", "placeCategory" : "beauty_salon", "placeName" : "Sunset Beach Tanning Salon (Maryhill)", "lat" : "55.880622", "popularity" : "3" }, { "lon" : "-4.279297", "vicinity" : "60-68 Park Road, Glasgow", "placeCategory" : "restaurant", "placeName" : "Shish Mahal", "lat" : "55.873095", "popularity" : "3" }, { "lon" : "-4.285603", "vicinity" : "Stevenson Building, 77 Oakfield Avenue, Glasgow", "placeCategory" : "university", "placeName" : "University of Glasgow Sport & Recreation", "lat" : "55.872827", "popularity" : "3" } ] }
{ "_id" : { "$oid" : "550f5803c6cdeefdf150733e" }, "user" : "55098836bc2e8b25cc00004b", "photoCount" : 18, "Recommend" : [ { "lon" : "-4.282765", "vicinity" : "15 Royal Terrace, Glasgow", "placeCategory" : "beauty_salon", "placeName" : "15 Royal Terrace Day Spa", "lat" : "55.866646", "popularity" : "2" }, { "lon" : "-4.286671", "vicinity" : "1191 Argyle Street, Glasgow", "placeCategory" : "restaurant", "placeName" : "Thai Siam", "lat" : "55.865395", "popularity" : "2" }, { "lon" : "-4.286716", "vicinity" : "979 Sauchiehall Street, Glasgow", "placeCategory" : "bar", "placeName" : "The Snaffle Bit", "lat" : "55.866156", "popularity" : "2" }, { "lon" : "-4.289918", "vicinity" : "1284 Argyle Street, Glasgow", "placeCategory" : "restaurant", "placeName" : "Ashoka West End", "lat" : "55.866721", "popularity" : "2" }, { "lon" : "-4.286605", "vicinity" : "10-14 Kelvinhaugh Street, City Centre, Glasgow", "placeCategory" : "bar", "placeName" : "The 78", "lat" : "55.86506", "popularity" : "2" }, { "lon" : "-4.284738", "vicinity" : "1114 Argyle Street, Finneston, Glasgow", "placeCategory" : "bar", "placeName" : "Crabshakk", "lat" : "55.864996", "popularity" : "2" }, { "lon" : "-4.28926", "vicinity" : "1055 Sauchiehall Street, Glasgow", "placeCategory" : "bar", "placeName" : "The Butchershop Bar & Grill", "lat" : "55.866944", "popularity" : "2" }, { "lon" : "-4.283855", "vicinity" : "28 Westminster Terrace, Glasgow", "placeCategory" : "restaurant", "placeName" : "Mother India", "lat" : "55.865217", "popularity" : "2" } ] }
{ "_id" : { "$oid" : "550f5810c6cdeefdf1507340" }, "user" : "550988afbc2e8b25cc00004d", "photoCount" : 3, "Recommend" : [ { "lon" : "11.899111", "vicinity" : "6280, Rohr 24A, Rohrberg", "placeCategory" : "bar", "placeName" : "Saustadl AprÃ¨s Ski Bar", "lat" : "47.237621", "popularity" : "1" }, { "lon" : "11.900038", "vicinity" : "Rohr 26F, Zell am Ziller", "placeCategory" : "night_club", "placeName" : "Jogglkessl Apres Ski", "lat" : "47.240215", "popularity" : "1" }, { "lon" : "23.581395", "vicinity" : "Strada Clinicilor, Cluj-Napoca", "placeCategory" : "library", "placeName" : "Heltai", "lat" : "46.765778", "popularity" : "1" }, { "lon" : "23.588933", "vicinity" : "Piata Unirii 15, Cluj-Napoca", "placeCategory" : "cafe", "placeName" : "CORSO Cafe&Bistro", "lat" : "46.769578", "popularity" : "1" }, { "lon" : "23.589419", "vicinity" : "Piata Unirii nr9, Cluj-Napoca", "placeCategory" : "cafe", "placeName" : "VERTIGO", "lat" : "46.768784", "popularity" : "1" }, { "lon" : "23.587893", "vicinity" : "Memorandumului nr2, Cluj-Napoca", "placeCategory" : "restaurant", "placeName" : "Matei Corvin S.R.L.", "lat" : "46.770659", "popularity" : "1" }, { "lon" : "23.587722", "vicinity" : "Memorandumului, nr. 9, la etaj, Cluj-Napoca", "placeCategory" : "cafe", "placeName" : "L'Atelier Cafe", "lat" : "46.769693", "popularity" : "1" }, { "lon" : "23.578346", "vicinity" : "Strada Clinicilor 9, Cluj-Napoca", "placeCategory" : "restaurant", "placeName" : "More", "lat" : "46.764689", "popularity" : "1" } ] }
{ "_id" : { "$oid" : "550f5826c6cdeefdf1507342" }, "user" : "55098995bc2e8b25cc00004f", "photoCount" : 20, "Recommend" : [ { "lon" : "-2.993096", "vicinity" : "1 Old Hall Street, Liverpool", "placeCategory" : "bar", "placeName" : "The Exchange", "lat" : "53.40818", "popularity" : "1" }, { "lon" : "-2.993064", "vicinity" : "25 The Strand, Central, Liverpool", "placeCategory" : "restaurant", "placeName" : "Etsu", "lat" : "53.405322", "popularity" : "1" }, { "lon" : "-2.991019", "vicinity" : "36 Castle Street, Liverpool", "placeCategory" : "restaurant", "placeName" : "Viva Brazil Liverpool", "lat" : "53.406149", "popularity" : "1" }, { "lon" : "-2.994278", "vicinity" : "The Hargreaves Buildings, 5 Chapel Street, Liverpool", "placeCategory" : "bar", "placeName" : "The Racquet Club Hotel & Ziba Restaurant", "lat" : "53.407299", "popularity" : "1" }, { "lon" : "-2.986629", "vicinity" : "14 Paradise Street, Liverpool", "placeCategory" : "movie_theater", "placeName" : "Odeon", "lat" : "53.40382", "popularity" : "1" }, { "lon" : "-2.986334", "vicinity" : "14 Button Street, Liverpool", "placeCategory" : "restaurant", "placeName" : "Bistro Pierre", "lat" : "53.406043", "popularity" : "1" }, { "lon" : "-2.986267", "vicinity" : "24 Sir Thomas Street, Liverpool", "placeCategory" : "bar", "placeName" : "The Sir Thomas", "lat" : "53.407706", "popularity" : "1" }, { "lon" : "-2.994857", "vicinity" : "Liverpool", "placeCategory" : "church", "placeName" : "Our Lady and Saint Nicholas Church of England", "lat" : "53.407085", "popularity" : "1" } ] }
{ "_id" : { "$oid" : "550f583bc6cdeefdf1507344" }, "user" : "5509b683bc2e8b25cc0000a3", "photoCount" : 20, "Recommend" : [ { "lon" : "28.1628", "vicinity" : "Ð‘Ð°Ð»Ñ‡Ð¸Ðº, ÐšÐ¾Ð¼Ð¿Ð»ÐµÐºÑ� Ð”Ð²Ð¾Ñ€ÐµÑ†Ð°", "placeCategory" : "restaurant", "placeName" : "Restorant BM Korona", "lat" : "43.42571", "popularity" : "1" }, { "lon" : "9.189041", "vicinity" : "Via Verdi, Milano", "placeCategory" : "church", "placeName" : "Saint Giuseppe", "lat" : "45.468542", "popularity" : "1" }, { "lon" : "9.18339", "vicinity" : "Via Cusani, 13, Milano", "placeCategory" : "bar", "placeName" : "UNA Hotel Cusani", "lat" : "45.468527", "popularity" : "1" }, { "lon" : "9.181529", "vicinity" : "Via S. Maria alla Porta, 10, Milano", "placeCategory" : "church", "placeName" : "Chiesa di Santa Maria alla Porta", "lat" : "45.465426", "popularity" : "1" }, { "lon" : "9.187235", "vicinity" : "Via Victor Hugo, 4, Milano", "placeCategory" : "restaurant", "placeName" : "Ristorante Cracco", "lat" : "45.463923", "popularity" : "1" }, { "lon" : "9.186859", "vicinity" : "Via dell'Orso, 7", "placeCategory" : "restaurant", "placeName" : "Hotel Milano Scala", "lat" : "45.46903", "popularity" : "1" }, { "lon" : "9.186113", "vicinity" : "Via Torino, 28, Milano", "placeCategory" : "church", "placeName" : "Civico Tempio di San Sebastiano", "lat" : "45.462189", "popularity" : "1" }, { "lon" : "9.187772", "vicinity" : "Piazza Giuseppe Missori, 4, Milano", "placeCategory" : "church", "placeName" : "Sant'Alessandro in Zebedia", "lat" : "45.461073", "popularity" : "1" } ] }
{ "_id" : { "$oid" : "550f5851c6cdeefdf1507346" }, "user" : "5509c882bc2e8b25cc0000b9", "photoCount" : 15, "Recommend" : [ { "lon" : "23.591947", "vicinity" : "Strada Meteor, Cluj-Napoca", "placeCategory" : "church", "placeName" : "Biserica OrtodoxÄƒ PogorÃ¢rea SfÃ¢ntului Duh", "lat" : "46.754553", "popularity" : "4" }, { "lon" : "23.593121", "vicinity" : "Complex StudenÈ›esc Observator, Strada Observatorului 34, Cluj-Napoca", "placeCategory" : "library", "placeName" : "Biblioteca UniversitÄƒÈ›ii Tehnice din Cluj-Napoca", "lat" : "46.756221", "popularity" : "4" }, { "lon" : "23.592559", "vicinity" : "Strada Observatorului 34, Cluj-Napoca", "placeCategory" : "bar", "placeName" : "Cin-Cin", "lat" : "46.755791", "popularity" : "4" }, { "lon" : "23.594575", "vicinity" : "Strada Republicii, Cluj-Napoca", "placeCategory" : "cafe", "placeName" : "Reload Cafe and Cocktails Bar", "lat" : "46.756591", "popularity" : "4" }, { "lon" : "23.593706", "vicinity" : "Republicii Street, Cluj-Napoca", "placeCategory" : "restaurant", "placeName" : "Le Buffet", "lat" : "46.757158", "popularity" : "4" }, { "lon" : "23.593909", "vicinity" : "Strada Observatorului, Cluj-Napoca", "placeCategory" : "restaurant", "placeName" : "Atena", "lat" : "46.756042", "popularity" : "4" }, { "lon" : "23.593989", "vicinity" : "Strada Republicii 120, Cluj-Napoca", "placeCategory" : "restaurant", "placeName" : "GoodFood", "lat" : "46.756469", "popularity" : "4" }, { "lon" : "23.594548", "vicinity" : "Strada Republicii, Cluj-Napoca", "placeCategory" : "restaurant", "placeName" : "La Liga", "lat" : "46.756741", "popularity" : "4" } ] }
{ "_id" : { "$oid" : "550f5867c6cdeefdf1507348" }, "user" : "550a2248bc2e8b25cc0000fe", "photoCount" : 10, "Recommend" : [ { "lon" : "-4.292003", "vicinity" : "8 Cresswell Lane, Glasgow", "placeCategory" : "restaurant", "placeName" : "Zizzi", "lat" : "55.876044", "popularity" : "4" }, { "lon" : "-4.290703", "vicinity" : "17 Vinicombe Street, Glasgow", "placeCategory" : "bar", "placeName" : "HillHead Bookclub", "lat" : "55.87696", "popularity" : "4" }, { "lon" : "-4.291289", "vicinity" : "1-9 Grosvenor Terrace, Glasgow", "placeCategory" : "bar", "placeName" : "Hilton Glasgow Grosvenor Hotel", "lat" : "55.877772", "popularity" : "4" }, { "lon" : "-4.289823", "vicinity" : "Byres Road, Glasgow", "placeCategory" : "night_club", "placeName" : "Oran Mor", "lat" : "55.877581", "popularity" : "4" }, { "lon" : "-4.29337", "vicinity" : "256-260 Byres Road, Glasgow", "placeCategory" : "bar", "placeName" : "The Curlers Rest", "lat" : "55.875388", "popularity" : "4" }, { "lon" : "-4.294928", "vicinity" : "199 Byres Road, Glasgow", "placeCategory" : "restaurant", "placeName" : "La Vita Spuntini", "lat" : "55.874297", "popularity" : "3" }, { "lon" : "-4.29322", "vicinity" : "Ashton Lane, Glasgow", "placeCategory" : "movie_theater", "placeName" : "Grosvenor Cinema", "lat" : "55.874678", "popularity" : "3" }, { "lon" : "-4.293067", "vicinity" : "Ashton Lane, Glasgow", "placeCategory" : "cafe", "placeName" : "Brel", "lat" : "55.874483", "popularity" : "3" } ] }
{ "_id" : { "$oid" : "550f587dc6cdeefdf150734a" }, "user" : "550af7fbbc2e8b25cc00012c", "photoCount" : 21, "Recommend" : [ { "lon" : "-4.2866884", "vicinity" : "Glasgow", "placeCategory" : "park", "placeName" : "Kelvingrove Park", "lat" : "55.8693975", "popularity" : "4" }, { "lon" : "-4.287047", "vicinity" : "77 Southpark Avenue, Glasgow", "placeCategory" : "church", "placeName" : "Wellington Church", "lat" : "55.872528", "popularity" : "3" }, { "lon" : "-4.288856", "vicinity" : "University of Glasgow, University Avenue, Glasgow", "placeCategory" : "art_gallery", "placeName" : "Hunterian Art Gallery", "lat" : "55.873071", "popularity" : "3" }, { "lon" : "-4.28907", "vicinity" : "Hillhead Street, Glasgow", "placeCategory" : "library", "placeName" : "University of Glasgow Library", "lat" : "55.873422", "popularity" : "3" }, { "lon" : "-4.28851", "vicinity" : "Gilbert Scott Building, University Of Glasgow, University Avenue, Glasgow", "placeCategory" : "museum", "placeName" : "Hunterian Museum", "lat" : "55.871667", "popularity" : "3" }, { "lon" : "-4.2882", "vicinity" : "Glasgow", "placeCategory" : "university", "placeName" : "University of Glasgow", "lat" : "55.872121", "popularity" : "3" }, { "lon" : "-4.290604", "vicinity" : "Argyle Street, Glasgow", "placeCategory" : "art_gallery", "placeName" : "Kelvingrove Art Gallery and Museum", "lat" : "55.868589", "popularity" : "3" }, { "lon" : "-4.283794", "vicinity" : "36 Kelvingrove Street, Glasgow", "placeCategory" : "restaurant", "placeName" : "The Sisters Kelvingrove", "lat" : "55.865648", "popularity" : "2" } ] }
{ "_id" : { "$oid" : "550f58a0c6cdeefdf150734c" }, "user" : "550b107abc2e8b25cc000132", "photoCount" : 20, "Recommend" : [ { "lon" : "24.888325", "vicinity" : "DJ173A, ColibiÈ›a", "placeCategory" : "restaurant", "placeName" : "AriniÈ™", "lat" : "47.172423", "popularity" : "1" }, { "lon" : "28.632705", "vicinity" : "Piata Victoriei, ConstanÈ›a", "placeCategory" : "restaurant", "placeName" : "Coffee Time", "lat" : "44.169119", "popularity" : "1" }, { "lon" : "28.634474", "vicinity" : "Strada BucureÈ™ti 13, ConstanÈ›a", "placeCategory" : "cafe", "placeName" : "Private Cafe", "lat" : "44.17685", "popularity" : "1" }, { "lon" : "28.638333", "vicinity" : "ConstanÈ›a", "placeCategory" : "beauty_salon", "placeName" : "Unghii Cu Gel Giullya", "lat" : "44.173333", "popularity" : "1" }, { "lon" : "28.639989", "vicinity" : "Prelungirea Traian, ConstanÈ›a", "placeCategory" : "restaurant", "placeName" : "Clubul Marinarilor", "lat" : "44.170196", "popularity" : "1" }, { "lon" : "28.642602", "vicinity" : "Strada Constantin BrÄƒtescu, ConstanÈ›a", "placeCategory" : "cafe", "placeName" : "Bratescu", "lat" : "44.177256", "popularity" : "1" }, { "lon" : "28.639656", "vicinity" : "Bulevardul Ferdinand 96, ConstanÈ›a", "placeCategory" : "restaurant", "placeName" : "Papa", "lat" : "44.172539", "popularity" : "1" }, { "lon" : "28.636488", "vicinity" : "Strada Industriei, ConstanÈ›a", "placeCategory" : "cafe", "placeName" : "Players Arena", "lat" : "44.175123", "popularity" : "1" } ] }
{ "_id" : { "$oid" : "550f58a9c6cdeefdf150734e" }, "user" : "550b2ba4bc2e8b25cc000177", "photoCount" : 10, "Recommend" : [] }
{ "_id" : { "$oid" : "550f58b9c6cdeefdf1507350" }, "user" : "550c4703bc2e8b25cc000230", "photoCount" : 20, "Recommend" : [ { "lon" : "26.359267", "vicinity" : "Bulevardul Mihai Eminescu, TÃ¢rgu NeamÈ›", "placeCategory" : "church", "placeName" : "Biserica SfÃ¢ntu Haralambie", "lat" : "47.203425", "popularity" : "1" }, { "lon" : "26.364524", "vicinity" : "Bulevardul È˜tefan cel Mare, TÃ¢rgu NeamÈ›", "placeCategory" : "casino", "placeName" : "Royal Caffe", "lat" : "47.20599", "popularity" : "1" }, { "lon" : "26.352506", "vicinity" : "Strada Ion CreangÄƒ, TÃ¢rgu NeamÈ›", "placeCategory" : "church", "placeName" : "Biserica â€žSfÃ¢ntul Ierarh Nicolaeâ€�", "lat" : "47.198576", "popularity" : "1" }, { "lon" : "26.358564", "vicinity" : "Bulevardul Mihai Eminescu, TÃ¢rgu NeamÈ›", "placeCategory" : "restaurant", "placeName" : "Pizza Smile", "lat" : "47.204783", "popularity" : "1" }, { "lon" : "26.365187", "vicinity" : "Strada Sublocotenent Radu Teoharie, TÃ¢rgu NeamÈ›", "placeCategory" : "cafe", "placeName" : "CAFENEAUA DANIOTI", "lat" : "47.203053", "popularity" : "1" }, { "lon" : "26.363622", "vicinity" : "18, TÃ¢rgu NeamÈ›", "placeCategory" : "church", "placeName" : "Biserica AdventistÄƒ TÃ¢rgu NeamÅ£", "lat" : "47.203089", "popularity" : "1" }, { "lon" : "26.363352", "vicinity" : "Targu Neamt", "placeCategory" : "shopping_mall", "placeName" : "Vogue Store", "lat" : "47.206166", "popularity" : "1" }, { "lon" : "26.364855", "vicinity" : "Bulevardul È˜tefan cel Mare, TÃ¢rgu NeamÈ›", "placeCategory" : "shopping_mall", "placeName" : "Del-ca-mag Dolomita Delnita", "lat" : "47.205863", "popularity" : "1" } ] }
{ "_id" : { "$oid" : "550f58cfc6cdeefdf1507352" }, "user" : "550c4d30bc2e8b25cc00024e", "photoCount" : 20, "Recommend" : [ { "lon" : "35.945695", "vicinity" : "Oman", "placeCategory" : "university", "placeName" : "ÙƒÙ„ÙŠØ© Ø§Ù„Ù‡Ù†Ø¯Ø³Ø© ØªÙ„ØªÙƒÙ†ÙˆÙ„ÙˆØ¬ÙŠØ©", "lat" : "31.956578", "popularity" : "1" }, { "lon" : "35.945695", "vicinity" : "Oman", "placeCategory" : "shopping_mall", "placeName" : "Azya Chams el Asel", "lat" : "31.956578", "popularity" : "1" }, { "lon" : "35.945695", "vicinity" : "mecca mallØŒ Ø´Ø§Ø±Ø¹ Ù…ÙƒÙ‡ØŒ Ø¹Ù…Ø§Ù†", "placeCategory" : "beauty_salon", "placeName" : "Danah beauty&spa,beauty center,saloon", "lat" : "31.956578", "popularity" : "1" }, { "lon" : "35.945695", "vicinity" : "Jordan University St, Amman", "placeCategory" : "restaurant", "placeName" : "YummyÂ® Restaurants", "lat" : "31.956578", "popularity" : "1" }, { "lon" : "35.945695", "vicinity" : "Ø¹Ù…Ø§Ù†-Ø§Ù„Ø±Ø§Ø¨ÙŠÙ‡-Ø´Ø§Ø±Ø¹ ØµÙ‚Ù„ÙŠÙ‡-Ù…Ù‚Ø§Ø¨Ù„ Ù…Ù‚Ù‡Ù‰ Ø§Ù„Ù…ÙˆØ±Ø¯ÙŠ-Ø®Ù„Ù� Ø²ÙŠØ¯ Ù„Ù„ØµØ±Ø§Ù�Ù‡ØŒ Ø¹Ù…Ø§Ù†", "placeCategory" : "cafe", "placeName" : "ÙƒÙˆÙ�ÙŠ Ø´ÙˆØ¨ Ø§Ù„Ù…Ø§Ø±ÙˆÙ…", "lat" : "31.956578", "popularity" : "1" }, { "lon" : "35.945695", "vicinity" : "ØªÙ„Ø§Ø¹ Ø§Ù„Ø¹Ù„ÙŠ Ø­ÙŠ Ø§Ù„ØµØ§Ù„Ø­ÙŠÙ† Ø¹Ù…Ø§Ù† Ù…ÙˆÙ„ØŒ Ø¹Ù…Ø§Ù†", "placeCategory" : "restaurant", "placeName" : "Ø´Ø±ÙƒØ© Ø²Ø±Ø²ÙˆØ± Ù„Ù„Ù…Ø§ÙƒÙˆÙ„Ø§Øª Ø§Ù„Ø¹Ø±Ø§Ù‚ÙŠØ©", "lat" : "31.956578", "popularity" : "1" }, { "lon" : "35.945695", "vicinity" : "Quraysh St, Amman", "placeCategory" : "museum", "placeName" : "Jordan Folklore Museum", "lat" : "31.956578", "popularity" : "1" }, { "lon" : "35.945695", "vicinity" : "Ù…Ø§Ø±ÙƒÙ‡ Ø§Ù„Ø¬Ù†ÙˆØ¨ÙŠÙ‡ØŒ Ø§Ø³ÙƒØ§Ù† ØµØ§Ù„Ø­ÙŠØ© Ø§Ù„Ø¹Ø§Ø¨Ø¯ØŒ Ø¹Ù…Ø§Ù†", "placeCategory" : "restaurant", "placeName" : "Ø­Ø¯ÙŠÙ†Ø§ Ù…ÙˆØ±Ø§", "lat" : "31.956578", "popularity" : "1" } ] }
