{ "_id" : { "$oid" : "550bb779705bf472586e3c56" }, "user" : "55094686bc2e8b25cc000003", "Recommend" : [ { "lon" : "24.56493", "vicinity" : "Strada Bolyai 13, TÃ¢rgu MureÈ™", "placeCategory" : "church", "placeName" : "Biserica UnitarianÄƒ", "lat" : "46.5433", "popularity" : "1" }, { "lon" : "24.562092", "vicinity" : "Strada KÃ¶teles SÃ¡muel 4, TÃ¢rgu MureÈ™", "placeCategory" : "church", "placeName" : "Parohia StudenÅ£eascÄƒ Romano-CatolicÄƒ", "lat" : "46.543269", "popularity" : "1" }, { "lon" : "24.561834", "vicinity" : "PiaÈ›a Trandafirilor, TÃ¢rgu MureÈ™", "placeCategory" : "night_club", "placeName" : "Cafenea Bar Club Zanza Cafe & Lounge Targu Mures - Cafenele Targu Mures", "lat" : "46.544653", "popularity" : "1" }, { "lon" : "24.556782", "vicinity" : "Strada Horea 25, TÃ¢rgu MureÈ™", "placeCategory" : "restaurant", "placeName" : "Tranzit", "lat" : "46.54505", "popularity" : "1" }, { "lon" : "24.562545", "vicinity" : "PiaÈ›a Trandafirilor 52, TÃ¢rgu MureÈ™", "placeCategory" : "cafe", "placeName" : "Zanza Cafe & Lounge", "lat" : "46.545059", "popularity" : "1" }, { "lon" : "24.562444", "vicinity" : "Bolyai NR 10, TÃ¢rgu MureÈ™", "placeCategory" : "cafe", "placeName" : "PIAF CAFE", "lat" : "46.543687", "popularity" : "1" }, { "lon" : "24.56475", "vicinity" : "Strada PoÈ™tei 1, TÃ¢rgu MureÈ™", "placeCategory" : "restaurant", "placeName" : "Asteri", "lat" : "46.546341", "popularity" : "1" }, { "lon" : "24.564291", "vicinity" : "Strada RevoluÈ›iei, TÃ¢rgu MureÈ™", "placeCategory" : "night_club", "placeName" : "Pub Club VHR Targu Mures - Puburi Targu Mures", "lat" : "46.549696", "popularity" : "1" } ] }
{ "_id" : { "$oid" : "550bb790705bf472586e3c57" }, "user" : "55096755bc2e8b25cc00002b", "Recommend" : [ { "lon" : "-4.282552", "vicinity" : "499 Great Western Road, Glasgow", "placeCategory" : "bar", "placeName" : "Coopers", "lat" : "55.875529", "popularity" : "4" }, { "lon" : "-4.282748", "vicinity" : "516 Great Western Road, Kelvinbridge, Glasgow", "placeCategory" : "art_gallery", "placeName" : "Art Exposure", "lat" : "55.875887", "popularity" : "4" }, { "lon" : "-4.282302", "vicinity" : "500 Great Western Road, Glasgow", "placeCategory" : "night_club", "placeName" : "The Viper", "lat" : "55.875732", "popularity" : "4" }, { "lon" : "-4.276425", "vicinity" : "7a Lansdowne Crescent, Glasgow", "placeCategory" : "bar", "placeName" : "Lansdowne Bar & Kitchen", "lat" : "55.874337", "popularity" : "4" }, { "lon" : "-4.280816", "vicinity" : "447 Great Western Road, Glasgow", "placeCategory" : "restaurant", "placeName" : "La Parmigiana â€ŽRestaurant Glasgow", "lat" : "55.874889", "popularity" : "4" }, { "lon" : "-4.279297", "vicinity" : "60-68 Park Road, Glasgow", "placeCategory" : "restaurant", "placeName" : "Shish Mahal", "lat" : "55.873095", "popularity" : "3" }, { "lon" : "-4.285603", "vicinity" : "Stevenson Building, 77 Oakfield Avenue, Glasgow", "placeCategory" : "university", "placeName" : "University of Glasgow Sport & Recreation", "lat" : "55.872827", "popularity" : "3" }, { "lon" : "-4.274942", "vicinity" : "300 Great Western Road, Glasgow", "placeCategory" : "church", "placeName" : "St Mary's Cathedral", "lat" : "55.873555", "popularity" : "3" } ] }
{ "_id" : { "$oid" : "550bb7a6705bf472586e3c58" }, "user" : "55098836bc2e8b25cc00004b", "Recommend" : [ { "lon" : "-4.278948", "vicinity" : "Finnieston, 944 Argyle Street, Glasgow", "placeCategory" : "cafe", "placeName" : "Coffee Chocolate and Tea", "lat" : "55.863175", "popularity" : "2" }, { "lon" : "-4.280987", "vicinity" : "1004 Argyle Street, Glasgow", "placeCategory" : "bar", "placeName" : "The Brass Monkey", "lat" : "55.863831", "popularity" : "2" }, { "lon" : "-4.282765", "vicinity" : "15 Royal Terrace, Glasgow", "placeCategory" : "beauty_salon", "placeName" : "15 Royal Terrace Day Spa", "lat" : "55.866646", "popularity" : "2" }, { "lon" : "-4.286671", "vicinity" : "1191 Argyle Street, Glasgow", "placeCategory" : "restaurant", "placeName" : "Thai Siam", "lat" : "55.865395", "popularity" : "2" }, { "lon" : "-4.286716", "vicinity" : "979 Sauchiehall Street, Glasgow", "placeCategory" : "bar", "placeName" : "The Snaffle Bit", "lat" : "55.866156", "popularity" : "2" }, { "lon" : "-4.289918", "vicinity" : "1284 Argyle Street, Glasgow", "placeCategory" : "restaurant", "placeName" : "Ashoka West End", "lat" : "55.866721", "popularity" : "2" }, { "lon" : "-4.286605", "vicinity" : "10-14 Kelvinhaugh Street, City Centre, Glasgow", "placeCategory" : "bar", "placeName" : "The 78", "lat" : "55.86506", "popularity" : "2" }, { "lon" : "-4.284738", "vicinity" : "1114 Argyle Street, Finneston, Glasgow", "placeCategory" : "bar", "placeName" : "Crabshakk", "lat" : "55.864996", "popularity" : "2" } ] }
{ "_id" : { "$oid" : "550bb7b3705bf472586e3c59" }, "user" : "550988afbc2e8b25cc00004d", "Recommend" : [ { "lon" : "11.899111", "vicinity" : "6280, Rohr 24A, Rohrberg", "placeCategory" : "bar", "placeName" : "Saustadl AprÃ¨s Ski Bar", "lat" : "47.237621", "popularity" : "1" }, { "lon" : "11.900038", "vicinity" : "Rohr 26F, Zell am Ziller", "placeCategory" : "night_club", "placeName" : "Jogglkessl Apres Ski", "lat" : "47.240215", "popularity" : "1" }, { "lon" : "23.577234", "vicinity" : "Strada PieziÈ™Äƒ, Cluj-Napoca", "placeCategory" : "restaurant", "placeName" : "Dolce Vita", "lat" : "46.763489", "popularity" : "1" }, { "lon" : "23.581395", "vicinity" : "Strada Clinicilor, Cluj-Napoca", "placeCategory" : "library", "placeName" : "Heltai", "lat" : "46.765778", "popularity" : "1" }, { "lon" : "23.588933", "vicinity" : "Piata Unirii 15, Cluj-Napoca", "placeCategory" : "cafe", "placeName" : "CORSO Cafe&Bistro", "lat" : "46.769578", "popularity" : "1" }, { "lon" : "23.589419", "vicinity" : "Piata Unirii nr9, Cluj-Napoca", "placeCategory" : "cafe", "placeName" : "VERTIGO", "lat" : "46.768784", "popularity" : "1" }, { "lon" : "23.587893", "vicinity" : "Memorandumului nr2, Cluj-Napoca", "placeCategory" : "restaurant", "placeName" : "Matei Corvin S.R.L.", "lat" : "46.770659", "popularity" : "1" }, { "lon" : "23.587722", "vicinity" : "Memorandumului, nr. 9, la etaj, Cluj-Napoca", "placeCategory" : "cafe", "placeName" : "L'Atelier Cafe", "lat" : "46.769693", "popularity" : "1" } ] }
{ "_id" : { "$oid" : "550bb7b8705bf472586e3c5a" }, "user" : "55098995bc2e8b25cc00004f", "Recommend" : [ { "lon" : "24.56493", "vicinity" : "Strada Bolyai 13, TÃ¢rgu MureÈ™", "placeCategory" : "church", "placeName" : "Biserica UnitarianÄƒ", "lat" : "46.5433", "popularity" : "1" }, { "lon" : "24.562092", "vicinity" : "Strada KÃ¶teles SÃ¡muel 4, TÃ¢rgu MureÈ™", "placeCategory" : "church", "placeName" : "Parohia StudenÅ£eascÄƒ Romano-CatolicÄƒ", "lat" : "46.543269", "popularity" : "1" }, { "lon" : "24.561834", "vicinity" : "PiaÈ›a Trandafirilor, TÃ¢rgu MureÈ™", "placeCategory" : "night_club", "placeName" : "Cafenea Bar Club Zanza Cafe & Lounge Targu Mures - Cafenele Targu Mures", "lat" : "46.544653", "popularity" : "1" }, { "lon" : "24.556782", "vicinity" : "Strada Horea 25, TÃ¢rgu MureÈ™", "placeCategory" : "restaurant", "placeName" : "Tranzit", "lat" : "46.54505", "popularity" : "1" }, { "lon" : "24.562545", "vicinity" : "PiaÈ›a Trandafirilor 52, TÃ¢rgu MureÈ™", "placeCategory" : "cafe", "placeName" : "Zanza Cafe & Lounge", "lat" : "46.545059", "popularity" : "1" }, { "lon" : "24.562444", "vicinity" : "Bolyai NR 10, TÃ¢rgu MureÈ™", "placeCategory" : "cafe", "placeName" : "PIAF CAFE", "lat" : "46.543687", "popularity" : "1" }, { "lon" : "24.56475", "vicinity" : "Strada PoÈ™tei 1, TÃ¢rgu MureÈ™", "placeCategory" : "restaurant", "placeName" : "Asteri", "lat" : "46.546341", "popularity" : "1" }, { "lon" : "24.564291", "vicinity" : "Strada RevoluÈ›iei, TÃ¢rgu MureÈ™", "placeCategory" : "night_club", "placeName" : "Pub Club VHR Targu Mures - Puburi Targu Mures", "lat" : "46.549696", "popularity" : "1" } ] }
{ "_id" : { "$oid" : "550bb7cd705bf472586e3c5b" }, "user" : "5509b683bc2e8b25cc0000a3", "Recommend" : [ { "lon" : "28.1628", "vicinity" : "Ð‘Ð°Ð»Ñ‡Ð¸Ðº, ÐšÐ¾Ð¼Ð¿Ð»ÐµÐºÑ� Ð”Ð²Ð¾Ñ€ÐµÑ†Ð°", "placeCategory" : "restaurant", "placeName" : "Restorant BM Korona", "lat" : "43.42571", "popularity" : "1" }, { "lon" : "9.189041", "vicinity" : "Via Verdi, Milano", "placeCategory" : "church", "placeName" : "Saint Giuseppe", "lat" : "45.468542", "popularity" : "1" }, { "lon" : "9.18339", "vicinity" : "Via Cusani, 13, Milano", "placeCategory" : "bar", "placeName" : "UNA Hotel Cusani", "lat" : "45.468527", "popularity" : "1" }, { "lon" : "9.181529", "vicinity" : "Via S. Maria alla Porta, 10, Milano", "placeCategory" : "church", "placeName" : "Chiesa di Santa Maria alla Porta", "lat" : "45.465426", "popularity" : "1" }, { "lon" : "9.187235", "vicinity" : "Via Victor Hugo, 4, Milano", "placeCategory" : "restaurant", "placeName" : "Ristorante Cracco", "lat" : "45.463923", "popularity" : "1" }, { "lon" : "9.186859", "vicinity" : "Via dell'Orso, 7", "placeCategory" : "restaurant", "placeName" : "Hotel Milano Scala", "lat" : "45.46903", "popularity" : "1" }, { "lon" : "9.186113", "vicinity" : "Via Torino, 28, Milano", "placeCategory" : "church", "placeName" : "Civico Tempio di San Sebastiano", "lat" : "45.462189", "popularity" : "1" }, { "lon" : "9.187772", "vicinity" : "Piazza Giuseppe Missori, 4, Milano", "placeCategory" : "church", "placeName" : "Sant'Alessandro in Zebedia", "lat" : "45.461073", "popularity" : "1" } ] }
{ "_id" : { "$oid" : "550bb7d6705bf472586e3c5c" }, "user" : "5509c882bc2e8b25cc0000b9", "Recommend" : [ { "lon" : "23.591947", "vicinity" : "Strada Meteor, Cluj-Napoca", "placeCategory" : "church", "placeName" : "Biserica OrtodoxÄƒ PogorÃ¢rea SfÃ¢ntului Duh", "lat" : "46.754553", "popularity" : "2" }, { "lon" : "23.593121", "vicinity" : "Complex StudenÈ›esc Observator, Strada Observatorului 34, Cluj-Napoca", "placeCategory" : "library", "placeName" : "Biblioteca UniversitÄƒÈ›ii Tehnice din Cluj-Napoca", "lat" : "46.756221", "popularity" : "2" }, { "lon" : "23.592559", "vicinity" : "Strada Observatorului 34, Cluj-Napoca", "placeCategory" : "bar", "placeName" : "Cin-Cin", "lat" : "46.755791", "popularity" : "2" }, { "lon" : "23.594575", "vicinity" : "Strada Republicii, Cluj-Napoca", "placeCategory" : "cafe", "placeName" : "Reload Cafe and Cocktails Bar", "lat" : "46.756591", "popularity" : "2" }, { "lon" : "23.594969", "vicinity" : "160, Cluj-Napoca", "placeCategory" : "restaurant", "placeName" : "COLORS Events & Ballroom", "lat" : "46.752193", "popularity" : "2" }, { "lon" : "23.593706", "vicinity" : "Republicii Street, Cluj-Napoca", "placeCategory" : "restaurant", "placeName" : "Le Buffet", "lat" : "46.757158", "popularity" : "2" }, { "lon" : "23.588629", "vicinity" : "Strada CeahlÄƒu, Cluj-Napoca", "placeCategory" : "bar", "placeName" : "CÄƒminul 8", "lat" : "46.755524", "popularity" : "2" }, { "lon" : "23.586107", "vicinity" : "Strada PÄƒdurii 13, Cluj-Napoca", "placeCategory" : "night_club", "placeName" : "Salon Masaj Erotic - Moulin Rouge Erotic Massage cluj, erotico massagio cluj,", "lat" : "46.752009", "popularity" : "2" } ] }
{ "_id" : { "$oid" : "550bb7e3705bf472586e3c5d" }, "user" : "550a2248bc2e8b25cc0000fe", "Recommend" : [ { "lon" : "-4.285343", "vicinity" : "1236 Maryhill Rd, Glasgow", "placeCategory" : "night_club", "placeName" : "Frampton's Nightclub", "lat" : "55.887323", "popularity" : "2" }, { "lon" : "-4.283787", "vicinity" : "10 Kelbourne Street, Glasgow", "placeCategory" : "church", "placeName" : "North Kelvinside Parish Church", "lat" : "55.881692", "popularity" : "2" }, { "lon" : "-4.283146", "vicinity" : "1057 Maryhill Rd, Glasgow", "placeCategory" : "cafe", "placeName" : "Cafearomacatering", "lat" : "55.885688", "popularity" : "2" }, { "lon" : "-4.284526", "vicinity" : "1190 Maryhill Rd, Glasgow", "placeCategory" : "bar", "placeName" : "The Viking Bar", "lat" : "55.886814", "popularity" : "2" }, { "lon" : "-4.280002", "vicinity" : "920 Maryhill Rd, Glasgow", "placeCategory" : "restaurant", "placeName" : "Wongs", "lat" : "55.883711", "popularity" : "2" }, { "lon" : "-4.28264", "vicinity" : "182 Queen Margaret Drive, Glasgow", "placeCategory" : "bar", "placeName" : "Crosslands", "lat" : "55.881996", "popularity" : "2" }, { "lon" : "-4.286314", "vicinity" : "76 Kelbourne Street, Glasgow", "placeCategory" : "park", "placeName" : "North Kelvin Meadow", "lat" : "55.88248", "popularity" : "2" }, { "lon" : "-4.284595", "vicinity" : "1200 Maryhill Rd, Glasgow", "placeCategory" : "restaurant", "placeName" : "McDonald's Maryhill Road", "lat" : "55.887228", "popularity" : "2" } ] }
{ "_id" : { "$oid" : "550bb7ec705bf472586e3c5e" }, "user" : "550af7fbbc2e8b25cc00012c", "Recommend" : [ { "lon" : "-4.2866884", "vicinity" : "Glasgow", "placeCategory" : "park", "placeName" : "Kelvingrove Park", "lat" : "55.8693975", "popularity" : "2" }, { "lon" : "-4.285006", "vicinity" : "1147 Argyle Street, Glasgow", "placeCategory" : "bar", "placeName" : "The Ben Nevis", "lat" : "55.864875", "popularity" : "1" }, { "lon" : "-4.288923", "vicinity" : "1256 Argyle Street, Glasgow", "placeCategory" : "bar", "placeName" : "Islay Inn.", "lat" : "55.86632", "popularity" : "1" }, { "lon" : "-4.278948", "vicinity" : "Finnieston, 944 Argyle Street, Glasgow", "placeCategory" : "cafe", "placeName" : "Coffee Chocolate and Tea", "lat" : "55.863175", "popularity" : "1" }, { "lon" : "-4.290421", "vicinity" : "Argyle Street, Glasgow", "placeCategory" : "cafe", "placeName" : "Firebird", "lat" : "55.866616", "popularity" : "1" }, { "lon" : "-4.280987", "vicinity" : "1004 Argyle Street, Glasgow", "placeCategory" : "bar", "placeName" : "The Brass Monkey", "lat" : "55.863831", "popularity" : "1" }, { "lon" : "-4.283794", "vicinity" : "36 Kelvingrove Street, Glasgow", "placeCategory" : "restaurant", "placeName" : "The Sisters Kelvingrove", "lat" : "55.865648", "popularity" : "1" }, { "lon" : "-4.282765", "vicinity" : "15 Royal Terrace, Glasgow", "placeCategory" : "beauty_salon", "placeName" : "15 Royal Terrace Day Spa", "lat" : "55.866646", "popularity" : "1" } ] }
{ "_id" : { "$oid" : "550bb801705bf472586e3c5f" }, "user" : "550b107abc2e8b25cc000132", "Recommend" : [ { "lon" : "24.580242", "vicinity" : "Strada Gheorghe Marinescu 38, TÃ¢rgu MureÈ™", "placeCategory" : "library", "placeName" : "Biblioteca UMF nr.2", "lat" : "46.554175", "popularity" : "1" }, { "lon" : "24.575138", "vicinity" : "Strada Nicolae Grigorescu 19, TÃ¢rgu MureÈ™", "placeCategory" : "night_club", "placeName" : "Club Tineret", "lat" : "46.552061", "popularity" : "1" }, { "lon" : "24.578493", "vicinity" : "Strada General Ion Dumitrache, TÃ¢rgu MureÈ™", "placeCategory" : "cafe", "placeName" : "Happy Cafe", "lat" : "46.552186", "popularity" : "1" }, { "lon" : "24.574578", "vicinity" : "Mihai Viteazu, TÃ¢rgu MureÈ™", "placeCategory" : "park", "placeName" : "Mihai Eminescu", "lat" : "46.551449", "popularity" : "1" }, { "lon" : "24.576429", "vicinity" : "Strada PÄƒdurii 7, TÃ¢rgu MureÈ™", "placeCategory" : "restaurant", "placeName" : "Centru De Caritate Åži ÃŽnvÄƒÅ£ÄƒmÄƒnt Reformat Bod PÃ©ter", "lat" : "46.54859", "popularity" : "1" }, { "lon" : "24.888325", "vicinity" : "DJ173A, ColibiÈ›a", "placeCategory" : "restaurant", "placeName" : "AriniÈ™", "lat" : "47.172423", "popularity" : "1" }, { "lon" : "27.595672", "vicinity" : "Strada Grigore Ghica 13, IaÈ™i", "placeCategory" : "university", "placeName" : "Petre Andrei University", "lat" : "47.160297", "popularity" : "1" }, { "lon" : "27.584651", "vicinity" : "Palat 20-22, IaÈ™i", "placeCategory" : "restaurant", "placeName" : "Pizzeria DomneascÄƒ", "lat" : "47.156701", "popularity" : "1" } ] }
